[{"OBJECT_NAME":"JILIN-1 GAOFEN 03D47","OBJECT_ID":"2022-167L","EPOCH":"2026-03-09T22:56:46.924224","MEAN_MOTION":15.31686941,"ECCENTRICITY":0.00089304,"INCLINATION":97.6835,"RA_OF_ASC_NODE":234.6581,"ARG_OF_PERICENTER":110.4031,"MEAN_ANOMALY":249.8169,"EPHEMERIS_TYPE":0,"CLASSIFICATION_TYPE":"U","NORAD_CAT_ID":54692,"ELEMENT_SET_NO":999,"REV_AT_EPOCH":18014,"BSTAR":0.00047294748,"MEAN_MOTION_DOT":0.00014417,"MEAN_MOTION_DDOT":0},{"OBJECT_NAME":"STARLINK-35275","OBJECT_ID":"2025-216Y","EPOCH":"2026-03-09T21:31:33.908736","MEAN_MOTION":15.30235435,"ECCENTRICITY":0.00010003,"INCLINATION":53.1574,"RA_OF_ASC_NODE":332.0448,"ARG_OF_PERICENTER":121.402,"MEAN_ANOMALY":238.7078,"EPHEMERIS_TYPE":0,"CLASSIFICATION_TYPE":"U","NORAD_CAT_ID":65756,"ELEMENT_SET_NO":999,"REV_AT_EPOCH":2657,"BSTAR":0.00085967948,"MEAN_MOTION_DOT":0.00025216,"MEAN_MOTION_DDOT":0}]
